{
    "links": {
        "self": "http://www.neowsapp.com/rest/v1/neo/3989454?api_key=iIulBulltgU6a56xZRHN4H3l9WmuAYTsLGpBGhQ2"
    },
    "id": "3989454",
    "neo_reference_id": "3989454",
    "name": "(2020 CV)",
    "designation": "2020 CV",
    "nasa_jpl_url": "http://ssd.jpl.nasa.gov/sbdb.cgi?sstr=3989454",
    "absolute_magnitude_h": 25.089,
    "estimated_diameter": {
        "kilometers": {
            "estimated_diameter_min": 0.0255126151,
            "estimated_diameter_max": 0.0570479416
        },
        "meters": {
            "estimated_diameter_min": 25.5126150742,
            "estimated_diameter_max": 57.0479415898
        },
        "miles": {
            "estimated_diameter_min": 0.0158527991,
            "estimated_diameter_max": 0.0354479365
        },
        "feet": {
            "estimated_diameter_min": 83.7028080401,
            "estimated_diameter_max": 187.1651686854
        }
    },
    "is_potentially_hazardous_asteroid": false,
    "close_approach_data": [
        {
            "close_approach_date": "2020-01-19",
            "close_approach_date_full": "2020-Jan-19 09:22",
            "epoch_date_close_approach": 1579425720000,
            "relative_velocity": {
                "kilometers_per_second": "5.2423072806",
                "kilometers_per_hour": "18872.306210313",
                "miles_per_hour": "11726.5171560692"
            },
            "miss_distance": {
                "astronomical": "0.1462001255",
                "lunar": "56.8718488195",
                "kilometers": "21871227.368532685",
                "miles": "13590150.503153653"
            },
            "orbiting_body": "Earth"
        }
    ],
    "orbital_data": {
        "orbit_id": "1",
        "orbit_determination_date": "2020-02-03 08:42:05",
        "first_observation_date": "2020-01-30",
        "last_observation_date": "2020-02-03",
        "data_arc_in_days": 4,
        "observations_used": 18,
        "orbit_uncertainty": "9",
        "minimum_orbit_intersection": ".139264",
        "jupiter_tisserand_invariant": "3.346",
        "epoch_osculation": "2458880.5",
        "eccentricity": ".5246336958039195",
        "semi_major_axis": "2.362718348906994",
        "inclination": "4.459363093763538",
        "ascending_node_longitude": "125.1677062471849",
        "orbital_period": "1326.527806201441",
        "perihelion_distance": "1.123156689376183",
        "perihelion_argument": "354.5186134740594",
        "aphelion_distance": "3.602280008437804",
        "perihelion_time": "2458866.756779606136",
        "mean_anomaly": "3.729706470276376",
        "mean_motion": ".2713851894525097",
        "equinox": "J2000",
        "orbit_class": {
            "orbit_class_type": "AMO",
            "orbit_class_description": "Near-Earth asteroid orbits similar to that of 1221 Amor",
            "orbit_class_range": "1.017 AU < q (perihelion) < 1.3 AU"
        }
    },
    "is_sentry_object": false
}